[{"OBJECT_NAME":"STARLINK-4784","OBJECT_ID":"2022-114X","EPOCH":"2024-07-17T22:08:13.570656","MEAN_MOTION":15.08823998,"ECCENTRICITY":0.0001443,"INCLINATION":53.2187,"RA_OF_ASC_NODE":106.8359,"ARG_OF_PERICENTER":95.0021,"MEAN_ANOMALY":265.1136,"EPHEMERIS_TYPE":0,"CLASSIFICATION_TYPE":"U","NORAD_CAT_ID":53839,"ELEMENT_SET_NO":999,"REV_AT_EPOCH":10242,"BSTAR":2.68e-5,"MEAN_MOTION_DOT":1.38e-6,"MEAN_MOTION_DDOT":0},{"OBJECT_NAME":"STARLINK-4766","OBJECT_ID":"2022-114Y","EPOCH":"2024-07-17T21:43:04.564416","MEAN_MOTION":15.08823843,"ECCENTRICITY":0.00015,"INCLINATION":53.2181,"RA_OF_ASC_NODE":106.7216,"ARG_OF_PERICENTER":88.7182,"MEAN_ANOMALY":271.3982,"EPHEMERIS_TYPE":0,"CLASSIFICATION_TYPE":"U","NORAD_CAT_ID":53840,"ELEMENT_SET_NO":999,"REV_AT_EPOCH":10188,"BSTAR":-4.3661e-5,"MEAN_MOTION_DOT":-9.82e-6,"MEAN_MOTION_DDOT":0},{"OBJECT_NAME":"STARLINK-4750","OBJECT_ID":"2022-114Z","EPOCH":"2024-07-17T21:52:18.214752","MEAN_MOTION":15.08834638,"ECCENTRICITY":0.0001593,"INCLINATION":53.2184,"RA_OF_ASC_NODE":106.7694,"ARG_OF_PERICENTER":117.3974,"MEAN_ANOMALY":242.718,"EPHEMERIS_TYPE":0,"CLASSIFICATION_TYPE":"U","NORAD_CAT_ID":53841,"ELEMENT_SET_NO":999,"REV_AT_EPOCH":10242,"BSTAR":-1.4782e-5,"MEAN_MOTION_DOT":-5.23e-6,"MEAN_MOTION_DDOT":0},{"OBJECT_NAME":"STARLINK-4754","OBJECT_ID":"2022-114AA","EPOCH":"2024-07-18T03:52:36.637824","MEAN_MOTION":15.08831994,"ECCENTRICITY":0.0001282,"INCLINATION":53.2144,"RA_OF_ASC_NODE":105.479,"ARG_OF_PERICENTER":104.9073,"MEAN_ANOMALY":255.2061,"EPHEMERIS_TYPE":0,"CLASSIFICATION_TYPE":"U","NORAD_CAT_ID":53842,"ELEMENT_SET_NO":999,"REV_AT_EPOCH":10192,"BSTAR":6.9883e-5,"MEAN_MOTION_DOT":8.24e-6,"MEAN_MOTION_DDOT":0},{"OBJECT_NAME":"STARLINK-4769","OBJECT_ID":"2022-114AB","EPOCH":"2024-07-18T04:08:31.471872","MEAN_MOTION":15.08839442,"ECCENTRICITY":0.0001064,"INCLINATION":53.2168,"RA_OF_ASC_NODE":105.5445,"ARG_OF_PERICENTER":97.9293,"MEAN_ANOMALY":262.1819,"EPHEMERIS_TYPE":0,"CLASSIFICATION_TYPE":"U","NORAD_CAT_ID":53843,"ELEMENT_SET_NO":999,"REV_AT_EPOCH":10192,"BSTAR":5.3411e-6,"MEAN_MOTION_DOT":-2.03e-6,"MEAN_MOTION_DDOT":0},{"OBJECT_NAME":"STARLINK-4745","OBJECT_ID":"2022-114AC","EPOCH":"2024-07-18T00:31:13.607328","MEAN_MOTION":15.08835227,"ECCENTRICITY":0.0001596,"INCLINATION":53.2155,"RA_OF_ASC_NODE":106.0207,"ARG_OF_PERICENTER":91.7287,"MEAN_ANOMALY":268.3888,"EPHEMERIS_TYPE":0,"CLASSIFICATION_TYPE":"U","NORAD_CAT_ID":53844,"ELEMENT_SET_NO":999,"REV_AT_EPOCH":10190,"BSTAR":5.0831e-5,"MEAN_MOTION_DOT":5.21e-6,"MEAN_MOTION_DDOT":0},{"OBJECT_NAME":"STARLINK-4753","OBJECT_ID":"2022-114AD","EPOCH":"2024-07-17T21:36:22.498560","MEAN_MOTION":15.08836221,"ECCENTRICITY":0.0001457,"INCLINATION":53.217,"RA_OF_ASC_NODE":106.7088,"ARG_OF_PERICENTER":119.1369,"MEAN_ANOMALY":240.9769,"EPHEMERIS_TYPE":0,"CLASSIFICATION_TYPE":"U","NORAD_CAT_ID":53845,"ELEMENT_SET_NO":999,"REV_AT_EPOCH":10188,"BSTAR":6.3498e-5,"MEAN_MOTION_DOT":7.23e-6,"MEAN_MOTION_DDOT":0},{"OBJECT_NAME":"STARLINK-4746","OBJECT_ID":"2022-114AE","EPOCH":"2024-07-17T22:45:13.935744","MEAN_MOTION":15.08834525,"ECCENTRICITY":0.0001778,"INCLINATION":53.2177,"RA_OF_ASC_NODE":106.2779,"ARG_OF_PERICENTER":109.697,"MEAN_ANOMALY":250.4214,"EPHEMERIS_TYPE":0,"CLASSIFICATION_TYPE":"U","NORAD_CAT_ID":53846,"ELEMENT_SET_NO":999,"REV_AT_EPOCH":10243,"BSTAR":5.3649e-5,"MEAN_MOTION_DOT":5.66e-6,"MEAN_MOTION_DDOT":0},{"OBJECT_NAME":"STARLINK-4777","OBJECT_ID":"2022-114AF","EPOCH":"2024-07-17T23:01:08.778432","MEAN_MOTION":15.08831501,"ECCENTRICITY":0.000156,"INCLINATION":53.2165,"RA_OF_ASC_NODE":106.343,"ARG_OF_PERICENTER":117.7677,"MEAN_ANOMALY":242.3474,"EPHEMERIS_TYPE":0,"CLASSIFICATION_TYPE":"U","NORAD_CAT_ID":53847,"ELEMENT_SET_NO":999,"REV_AT_EPOCH":10243,"BSTAR":5.9121e-5,"MEAN_MOTION_DOT":6.53e-6,"MEAN_MOTION_DDOT":0},{"OBJECT_NAME":"STARLINK-4780","OBJECT_ID":"2022-114AG","EPOCH":"2024-07-18T00:09:59.821632","MEAN_MOTION":15.08830526,"ECCENTRICITY":0.0001481,"INCLINATION":53.2131,"RA_OF_ASC_NODE":105.9349,"ARG_OF_PERICENTER":124.1316,"MEAN_ANOMALY":235.9817,"EPHEMERIS_TYPE":0,"CLASSIFICATION_TYPE":"U","NORAD_CAT_ID":53848,"ELEMENT_SET_NO":999,"REV_AT_EPOCH":10190,"BSTAR":-0.00030918,"MEAN_MOTION_DOT":-5.204e-5,"MEAN_MOTION_DDOT":0},{"OBJECT_NAME":"STARLINK-4770","OBJECT_ID":"2022-114AH","EPOCH":"2024-07-17T22:50:32.144352","MEAN_MOTION":15.0883887,"ECCENTRICITY":0.0001584,"INCLINATION":53.216,"RA_OF_ASC_NODE":106.3003,"ARG_OF_PERICENTER":88.7197,"MEAN_ANOMALY":271.3976,"EPHEMERIS_TYPE":0,"CLASSIFICATION_TYPE":"U","NORAD_CAT_ID":53849,"ELEMENT_SET_NO":999,"REV_AT_EPOCH":10243,"BSTAR":0.00018467,"MEAN_MOTION_DOT":2.652e-5,"MEAN_MOTION_DDOT":0},{"OBJECT_NAME":"STARLINK-4767","OBJECT_ID":"2022-114AJ","EPOCH":"2024-07-17T22:18:42.337152","MEAN_MOTION":15.08826714,"ECCENTRICITY":0.0001359,"INCLINATION":53.2159,"RA_OF_ASC_NODE":106.1709,"ARG_OF_PERICENTER":103.9761,"MEAN_ANOMALY":256.1382,"EPHEMERIS_TYPE":0,"CLASSIFICATION_TYPE":"U","NORAD_CAT_ID":53850,"ELEMENT_SET_NO":999,"REV_AT_EPOCH":10243,"BSTAR":-4.6532e-5,"MEAN_MOTION_DOT":-1.028e-5,"MEAN_MOTION_DDOT":0},{"OBJECT_NAME":"STARLINK-4755","OBJECT_ID":"2022-114AK","EPOCH":"2024-07-18T00:15:18.248832","MEAN_MOTION":15.08846143,"ECCENTRICITY":0.0001348,"INCLINATION":53.2165,"RA_OF_ASC_NODE":105.9569,"ARG_OF_PERICENTER":93.085,"MEAN_ANOMALY":267.0296,"EPHEMERIS_TYPE":0,"CLASSIFICATION_TYPE":"U","NORAD_CAT_ID":53851,"ELEMENT_SET_NO":999,"REV_AT_EPOCH":10190,"BSTAR":0.0016058,"MEAN_MOTION_DOT":0.00025365,"MEAN_MOTION_DDOT":0},{"OBJECT_NAME":"STARLINK-4797","OBJECT_ID":"2022-114AL","EPOCH":"2024-07-17T22:59:09.786624","MEAN_MOTION":15.08833419,"ECCENTRICITY":0.000149,"INCLINATION":53.2166,"RA_OF_ASC_NODE":101.3547,"ARG_OF_PERICENTER":107.7376,"MEAN_ANOMALY":252.3779,"EPHEMERIS_TYPE":0,"CLASSIFICATION_TYPE":"U","NORAD_CAT_ID":53852,"ELEMENT_SET_NO":999,"REV_AT_EPOCH":10250,"BSTAR":3.3532e-5,"MEAN_MOTION_DOT":2.46e-6,"MEAN_MOTION_DDOT":0},{"OBJECT_NAME":"STARLINK-4794","OBJECT_ID":"2022-114AM","EPOCH":"2024-07-18T00:04:41.438496","MEAN_MOTION":15.08852185,"ECCENTRICITY":0.0001413,"INCLINATION":53.2152,"RA_OF_ASC_NODE":105.9161,"ARG_OF_PERICENTER":66.4564,"MEAN_ANOMALY":293.6577,"EPHEMERIS_TYPE":0,"CLASSIFICATION_TYPE":"U","NORAD_CAT_ID":53853,"ELEMENT_SET_NO":999,"REV_AT_EPOCH":10190,"BSTAR":0.0006652,"MEAN_MOTION_DOT":0.00010318,"MEAN_MOTION_DDOT":0},{"OBJECT_NAME":"STARLINK-4800","OBJECT_ID":"2022-114AN","EPOCH":"2024-07-17T22:04:14.392992","MEAN_MOTION":15.08833844,"ECCENTRICITY":0.0001914,"INCLINATION":53.2177,"RA_OF_ASC_NODE":96.8262,"ARG_OF_PERICENTER":99.4368,"MEAN_ANOMALY":260.6841,"EPHEMERIS_TYPE":0,"CLASSIFICATION_TYPE":"U","NORAD_CAT_ID":53854,"ELEMENT_SET_NO":999,"REV_AT_EPOCH":10256,"BSTAR":1.4584e-5,"MEAN_MOTION_DOT":-5.6e-7,"MEAN_MOTION_DDOT":0},{"OBJECT_NAME":"STARLINK-4703","OBJECT_ID":"2022-114AP","EPOCH":"2024-07-18T00:11:22.715520","MEAN_MOTION":15.08829483,"ECCENTRICITY":0.0001537,"INCLINATION":53.216,"RA_OF_ASC_NODE":105.9382,"ARG_OF_PERICENTER":102.0567,"MEAN_ANOMALY":258.0598,"EPHEMERIS_TYPE":0,"CLASSIFICATION_TYPE":"U","NORAD_CAT_ID":53855,"ELEMENT_SET_NO":999,"REV_AT_EPOCH":10190,"BSTAR":-8.6774e-5,"MEAN_MOTION_DOT":-1.668e-5,"MEAN_MOTION_DDOT":0},{"OBJECT_NAME":"STARLINK-4795","OBJECT_ID":"2022-114AQ","EPOCH":"2024-07-18T02:29:09.884832","MEAN_MOTION":15.0883832,"ECCENTRICITY":0.000142,"INCLINATION":53.2173,"RA_OF_ASC_NODE":95.8464,"ARG_OF_PERICENTER":83.2933,"MEAN_ANOMALY":276.8221,"EPHEMERIS_TYPE":0,"CLASSIFICATION_TYPE":"U","NORAD_CAT_ID":53856,"ELEMENT_SET_NO":999,"REV_AT_EPOCH":10205,"BSTAR":3.561e-5,"MEAN_MOTION_DOT":2.79e-6,"MEAN_MOTION_DDOT":0},{"OBJECT_NAME":"STARLINK-4809","OBJECT_ID":"2022-114AR","EPOCH":"2024-07-18T02:59:32.886816","MEAN_MOTION":15.08836569,"ECCENTRICITY":0.0001181,"INCLINATION":53.2164,"RA_OF_ASC_NODE":105.2489,"ARG_OF_PERICENTER":103.4901,"MEAN_ANOMALY":256.6223,"EPHEMERIS_TYPE":0,"CLASSIFICATION_TYPE":"U","NORAD_CAT_ID":53857,"ELEMENT_SET_NO":999,"REV_AT_EPOCH":10192,"BSTAR":-7.5039e-5,"MEAN_MOTION_DOT":-1.482e-5,"MEAN_MOTION_DDOT":0},{"OBJECT_NAME":"STARLINK-4798","OBJECT_ID":"2022-114AS","EPOCH":"2024-07-17T23:34:19.073280","MEAN_MOTION":15.08831752,"ECCENTRICITY":0.0001614,"INCLINATION":53.2188,"RA_OF_ASC_NODE":96.5069,"ARG_OF_PERICENTER":104.4377,"MEAN_ANOMALY":255.6794,"EPHEMERIS_TYPE":0,"CLASSIFICATION_TYPE":"U","NORAD_CAT_ID":53858,"ELEMENT_SET_NO":999,"REV_AT_EPOCH":10203,"BSTAR":1.4217e-5,"MEAN_MOTION_DOT":-6.2e-7,"MEAN_MOTION_DDOT":0},{"OBJECT_NAME":"STARLINK-4790","OBJECT_ID":"2022-114AT","EPOCH":"2024-07-18T03:08:10.445280","MEAN_MOTION":15.08832721,"ECCENTRICITY":0.0001756,"INCLINATION":53.2165,"RA_OF_ASC_NODE":100.2969,"ARG_OF_PERICENTER":111.634,"MEAN_ANOMALY":248.484,"EPHEMERIS_TYPE":0,"CLASSIFICATION_TYPE":"U","NORAD_CAT_ID":53859,"ELEMENT_SET_NO":999,"REV_AT_EPOCH":10199,"BSTAR":-8.5298e-5,"MEAN_MOTION_DOT":-1.645e-5,"MEAN_MOTION_DDOT":0},{"OBJECT_NAME":"STARLINK-4799","OBJECT_ID":"2022-114AU","EPOCH":"2024-07-17T23:23:42.341568","MEAN_MOTION":15.08831969,"ECCENTRICITY":0.0001279,"INCLINATION":53.2164,"RA_OF_ASC_NODE":96.4616,"ARG_OF_PERICENTER":101.0754,"MEAN_ANOMALY":259.0382,"EPHEMERIS_TYPE":0,"CLASSIFICATION_TYPE":"U","NORAD_CAT_ID":53860,"ELEMENT_SET_NO":999,"REV_AT_EPOCH":10233,"BSTAR":7.6803e-6,"MEAN_MOTION_DOT":-1.66e-6,"MEAN_MOTION_DDOT":0},{"OBJECT_NAME":"STARLINK-4781","OBJECT_ID":"2022-114AV","EPOCH":"2024-07-17T23:29:01.682880","MEAN_MOTION":15.08819117,"ECCENTRICITY":0.0001244,"INCLINATION":53.2192,"RA_OF_ASC_NODE":96.4917,"ARG_OF_PERICENTER":74.9616,"MEAN_ANOMALY":285.1514,"EPHEMERIS_TYPE":0,"CLASSIFICATION_TYPE":"U","NORAD_CAT_ID":53861,"ELEMENT_SET_NO":999,"REV_AT_EPOCH":10203,"BSTAR":-2.3283e-5,"MEAN_MOTION_DOT":-6.58e-6,"MEAN_MOTION_DDOT":0}]
